SIRION PATHFINDER-2     
1 43759U 18099B   26139.10897072  .00002947  00000+0  16457-3 0  9997
2 43759  97.4267 188.8605 0009861  49.4231 310.7858 15.14255255408221
CORVUS BC4              
1 43767U 18099K   26139.07634685  .00003146  00000+0  18555-3 0  9994
2 43767  97.4085 182.9113 0010052 101.0674 259.1687 15.12232036408009
M2 PATHFINDER           
1 45727U 20037E   26139.51654692  .00001047  00000+0  79258-4 0  9992
2 45727  97.8159 330.4282 0009957 246.5960 113.4219 15.04536865321189
NETSAT-4                
1 46504U 20068U   26139.27265794  .00011075  00000+0  25476-3 0  9998
2 46504  97.8612 145.2143 0007398  73.6405 286.5654 15.42816884311318
NETSAT-3                
1 46505U 20068V   26139.45105397  .00011527  00000+0  27601-3 0  9995
2 46505  97.8662 143.6606 0007467  86.1467 274.0632 15.41595940311251
NETSAT-1                
1 46506U 20068W   26139.43879684  .00008022  00000+0  24735-3 0  9992
2 46506  97.8752 138.3112 0006982 105.9336 254.2675 15.33872753310898
NETSAT-2                
1 46507U 20068X   26139.47942781  .00015801  00000+0  34056-3 0  9996
2 46507  97.8627 145.2338 0006266  96.0485 264.1476 15.44668014311308
GREENCUBE (IO-117)      
1 53109U 22080E   26139.39156273 -.00000003  00000+0  00000+0 0  9999
2 53109  70.1431 308.2634 0008840 296.5004  63.4749  6.42583330 90217
SITRO-AIS 5 (KATYS)     
1 57176U 23091L   26139.47248193  .00008218  00000+0  29644-3 0  9996
2 57176  97.5071 203.1124 0011350 195.7470 164.3418 15.28724892159957
SITRO-AIS 6 (CHIRKIN)   
1 57192U 23091AC  26139.51757212  .00006785  00000+0  27165-3 0  9999
2 57192  97.5079 202.4259 0011481 198.9799 161.1012 15.25330363159912
SITRO-AIS 8 (ANOKHIN)   
1 57193U 23091AD  26139.47317145  .00009682  00000+0  32254-3 0  9996
2 57193  97.5067 204.5880 0010666 191.2307 168.8698 15.31275539160059
SITRO-AIS 7 (FARTUSHNIY)
1 57194U 23091AE  26139.51498559  .00006535  00000+0  26413-3 0  9995
2 57194  97.5076 202.2628 0011288 200.0767 160.0028 15.25032240159901
SITRO-AIS 10 (BURDAEV)  
1 57199U 23091AK  26139.49231587  .00013581  00000+0  37193-3 0  9999
2 57199  97.5089 209.3732 0007629 164.7530 195.3946 15.37419459160357
SITRO-AIS 9 (SHCHUKIN)  
1 57201U 23091AM  26139.50994231  .00013549  00000+0  37652-3 0  9991
2 57201  97.5087 209.1430 0007825 165.1819 194.9656 15.36964096160348
SITRO-AIS 12 (SMIRENNIY)
1 57204U 23091AQ  26139.50592645  .00013449  00000+0  37036-3 0  9992
2 57204  97.5099 209.5883 0007613 159.5784 200.5766 15.37249210160366
SITRO-AIS 11 (SHEFFER)  
1 57208U 23091AU  26139.52701154  .00013725  00000+0  37313-3 0  9990
2 57208  97.5097 209.8389 0007520 159.3326 200.8224 15.37645915160385
SITRO-AIS 25            
1 59066U 24039R   26139.49784774  .00003199  00000+0  24930-3 0  9997
2 59066  95.3917 215.3802 0147281  68.8188 292.8702 14.93301246120449
SITRO-AIS 26            
1 59067U 24039S   26139.49534819  .00003080  00000+0  24120-3 0  9991
2 59067  95.3918 215.2820 0147600  69.3715 292.3268 14.93102985120437
SITRO-AIS 27            
1 59068U 24039T   26139.54057948  .00002905  00000+0  22577-3 0  9990
2 59068  95.3919 215.5716 0146530  67.9026 293.7683 14.93512999120465
SITRO-AIS 28            
1 59071U 24039U   26139.51867664  .00002585  00000+0  20099-3 0  9996
2 59071  95.3921 215.6022 0146467  67.8119 293.8573 14.93549607120469
GRBBETA                 
1 60237U 24128C   26139.48026697  .00002751  00000+0  19659-3 0  9995
2 60237  61.9902 316.9659 0044576 128.7162 231.7930 15.06377780101943
OOV-CUBE (TUBSAT-30)    
1 60240U 24128F   26139.50878655  .00001527  00000+0  12723-3 0  9996
2 60240  61.9945 325.5624 0048220 127.5162 233.0326 15.02610612101808
ROBUSTA-3A (MEDITERRAN*)
1 60243U 24128J   26139.48883411  .00005590  00000+0  33650-3 0  9998
2 60243  61.9869 309.6965 0045359 122.5770 237.9718 15.11177573102080
LASARSAT                
1 62391U 24247Q   26139.21153896  .00019872  00000+0  42671-3 0  9995
2 62391  44.9757  64.7984 0005508 164.9742 195.1311 15.44422390 78839
CROCUBE                 
1 62394U 24247T   26139.50073164  .00026425  00000+0  53373-3 0  9992
2 62394  44.9735  60.9452 0005343 171.0792 189.0194 15.46063712 78907
FORESAIL-1 PRIME        
1 66778U 25276DS  26139.46441709  .00002928  00000+0  14561-3 0  9992
2 66778  97.4206 213.2659 0002425 167.1332 192.9965 15.18407361 26047
KNACKSAT-2              
1 67683U 98067XZ  26139.04864862  .00031100  00000+0  42253-3 0  9992
2 67683  51.6308  80.7389 0012200  92.2883 267.9506 15.57245204 15733
